{
  "norad_id": 59375,
  "name": "STARLINK-31430",
  "history": [
    {
      "epoch": "2026-03-28T15:19:20.157600Z",
      "apogee_km": 476.13833136181256,
      "perigee_km": 474.35124352691855,
      "latitude_deg": 2.584870614883205e-05,
      "longitude_deg": 114.52073032881367,
      "height_km": 476.07483725590043,
      "semi_major_axis_km": 6853.381787444365,
      "eccentricity": 0.00013038,
      "inclination_deg": 53.1608,
      "raan_deg": 170.4107,
      "arg_perigee_deg": 85.6314,
      "mean_anomaly_deg": 274.4836,
      "mean_motion_rev_day": 15.30190047
    }
  ]
}