{"fetched_at":"2026-03-30T06:02:59Z","count":15439,"tles":[{"name":"STARLINK-31430","line1":"1 59375U 24062B   26087.63842775  .00002660  00000+0  10192-3 0  9997","line2":"2 59375  53.1608 170.4107 0001303  85.6314 274.4836 15.30190047112534","category":"Starlink"}]}